STARLINK-11093 [DTC]    
1 59423U 24065C   26035.01408347  .00000136  00000+0  59819-5 0  9999
2 59423  53.1580 259.9140 0000986 119.0337 241.0780 15.69706270106231
STARLINK-11083 [DTC]    
1 59424U 24065D   26035.01898832 -.00000323  00000+0  21936-5 0  9990
2 59424  53.1580 259.9465 0000947 108.6879 251.4242 15.69709392106184
STARLINK-11085 [DTC]    
1 59425U 24065E   26035.00427380 -.00000721  00000+0 -10915-5 0  9994
2 59425  53.1576 259.8516 0000998 130.0446 230.0659 15.69708356106185
STARLINK-11089 [DTC]    
1 59426U 24065F   26035.02880133 -.00001025  00000+0 -36028-5 0  9997
2 59426  53.1592 260.0297 0001012 126.4994 233.6117 15.69715009106236
STARLINK-31757          
1 59427U 24065G   26035.27232511  .00000395  00000+0  25463-4 0  9993
2 59427  53.1599  76.8631 0001210 101.3065 258.8072 15.30192105103814
STARLINK-31773          
1 59429U 24065J   26035.31916939  .00000714  00000+0  36229-4 0  9990
2 59429  53.1594  78.5665 0001232  71.1080 289.0054 15.30193515103791
STARLINK-31772          
1 59430U 24065K   26035.32180120 -.00001212  00000+0 -28790-4 0  9998
2 59430  53.1602  76.4490 0001260  95.4684 264.6461 15.30206592103821
STARLINK-31613          
1 59431U 24065L   26035.26917469 -.00001517  00000+0 -39134-4 0  9998
2 59431  53.1595  76.8327 0001162 101.1700 258.9431 15.30178894103816
STARLINK-31780          
1 59432U 24065M   26035.27654391  .00000172  00000+0  17943-4 0  9990
2 59432  53.1597  76.8755 0001122  98.2569 261.8559 15.30191812103818
STARLINK-31740          
1 59433U 24065N   26035.31705883  .00001070  00000+0  48273-4 0  9997
2 59433  53.1599  78.5566 0001340  80.3056 279.8096 15.30190914103799
STARLINK-31580          
1 59434U 24065P   26035.32550348  .00002451  00000+0  94871-4 0  9992
2 59434  53.1599  78.6118 0001324  62.8890 297.2246 15.30194633103790
STARLINK-31696          
1 59435U 24065Q   26035.26598900  .00002690  00000+0  10291-3 0  9990
2 59435  53.1569  76.8128 0001290  94.6177 265.4971 15.30197259103814
STARLINK-31700          
1 59436U 24065R   26035.32496816  .00000326  00000+0  23144-4 0  9997
2 59436  53.1565  76.4575 0000969  85.7195 274.3916 15.30196949103820
STARLINK-31706          
1 59437U 24065S   26035.31811480  .00000043  00000+0  13592-4 0  9997
2 59437  53.1590  78.5651 0001262  88.0189 272.0956 15.30195885103796
STARLINK-31711          
1 59438U 24065T   26035.32813468  .00010365  00000+0  36135-3 0  9992
2 59438  53.1587  76.4904 0003316 123.2501 236.8818 15.30221492103826
STARLINK-31708          
1 59439U 24065U   26035.31863994  .00001428  00000+0  60337-4 0  9993
2 59439  53.1580  76.4259 0001195 104.6993 255.4140 15.30193426103824
