[{"OBJECT_NAME":"STARLINK-11093 [DTC]","OBJECT_ID":"2024-065C","EPOCH":"2026-02-04T00:20:16.811808","MEAN_MOTION":15.6970627,"ECCENTRICITY":9.866e-5,"INCLINATION":53.158,"RA_OF_ASC_NODE":259.914,"ARG_OF_PERICENTER":119.0337,"MEAN_ANOMALY":241.078,"EPHEMERIS_TYPE":0,"CLASSIFICATION_TYPE":"U","NORAD_CAT_ID":59423,"ELEMENT_SET_NO":999,"REV_AT_EPOCH":10623,"BSTAR":5.981927e-6,"MEAN_MOTION_DOT":1.36e-6,"MEAN_MOTION_DDOT":0},{"OBJECT_NAME":"STARLINK-11083 [DTC]","OBJECT_ID":"2024-065D","EPOCH":"2026-02-04T00:27:20.590848","MEAN_MOTION":15.69709392,"ECCENTRICITY":9.473e-5,"INCLINATION":53.158,"RA_OF_ASC_NODE":259.9465,"ARG_OF_PERICENTER":108.6879,"MEAN_ANOMALY":251.4242,"EPHEMERIS_TYPE":0,"CLASSIFICATION_TYPE":"U","NORAD_CAT_ID":59424,"ELEMENT_SET_NO":999,"REV_AT_EPOCH":10618,"BSTAR":2.193635e-6,"MEAN_MOTION_DOT":-3.23e-6,"MEAN_MOTION_DDOT":0},{"OBJECT_NAME":"STARLINK-11085 [DTC]","OBJECT_ID":"2024-065E","EPOCH":"2026-02-04T00:06:09.256320","MEAN_MOTION":15.69708356,"ECCENTRICITY":9.989e-5,"INCLINATION":53.1576,"RA_OF_ASC_NODE":259.8516,"ARG_OF_PERICENTER":130.0446,"MEAN_ANOMALY":230.0659,"EPHEMERIS_TYPE":0,"CLASSIFICATION_TYPE":"U","NORAD_CAT_ID":59425,"ELEMENT_SET_NO":999,"REV_AT_EPOCH":10618,"BSTAR":-1.091525e-6,"MEAN_MOTION_DOT":-7.21e-6,"MEAN_MOTION_DDOT":0},{"OBJECT_NAME":"STARLINK-11089 [DTC]","OBJECT_ID":"2024-065F","EPOCH":"2026-02-04T00:41:28.434912","MEAN_MOTION":15.69715009,"ECCENTRICITY":0.00010126,"INCLINATION":53.1592,"RA_OF_ASC_NODE":260.0297,"ARG_OF_PERICENTER":126.4994,"MEAN_ANOMALY":233.6117,"EPHEMERIS_TYPE":0,"CLASSIFICATION_TYPE":"U","NORAD_CAT_ID":59426,"ELEMENT_SET_NO":999,"REV_AT_EPOCH":10623,"BSTAR":-3.602834e-6,"MEAN_MOTION_DOT":-1.025e-5,"MEAN_MOTION_DDOT":0},{"OBJECT_NAME":"STARLINK-31757","OBJECT_ID":"2024-065G","EPOCH":"2026-02-04T06:32:08.889504","MEAN_MOTION":15.30192105,"ECCENTRICITY":0.00012108,"INCLINATION":53.1599,"RA_OF_ASC_NODE":76.8631,"ARG_OF_PERICENTER":101.3065,"MEAN_ANOMALY":258.8072,"EPHEMERIS_TYPE":0,"CLASSIFICATION_TYPE":"U","NORAD_CAT_ID":59427,"ELEMENT_SET_NO":999,"REV_AT_EPOCH":10381,"BSTAR":2.5462831e-5,"MEAN_MOTION_DOT":3.95e-6,"MEAN_MOTION_DDOT":0},{"OBJECT_NAME":"STARLINK-31773","OBJECT_ID":"2024-065J","EPOCH":"2026-02-04T07:39:36.235296","MEAN_MOTION":15.30193515,"ECCENTRICITY":0.00012323,"INCLINATION":53.1594,"RA_OF_ASC_NODE":78.5665,"ARG_OF_PERICENTER":71.108,"MEAN_ANOMALY":289.0054,"EPHEMERIS_TYPE":0,"CLASSIFICATION_TYPE":"U","NORAD_CAT_ID":59429,"ELEMENT_SET_NO":999,"REV_AT_EPOCH":10379,"BSTAR":3.6228801e-5,"MEAN_MOTION_DOT":7.14e-6,"MEAN_MOTION_DDOT":0},{"OBJECT_NAME":"STARLINK-31772","OBJECT_ID":"2024-065K","EPOCH":"2026-02-04T07:43:23.623680","MEAN_MOTION":15.30206592,"ECCENTRICITY":0.00012608,"INCLINATION":53.1602,"RA_OF_ASC_NODE":76.449,"ARG_OF_PERICENTER":95.4684,"MEAN_ANOMALY":264.6461,"EPHEMERIS_TYPE":0,"CLASSIFICATION_TYPE":"U","NORAD_CAT_ID":59430,"ELEMENT_SET_NO":999,"REV_AT_EPOCH":10382,"BSTAR":-2.8789501e-5,"MEAN_MOTION_DOT":-1.212e-5,"MEAN_MOTION_DDOT":0},{"OBJECT_NAME":"STARLINK-31613","OBJECT_ID":"2024-065L","EPOCH":"2026-02-04T06:27:36.693216","MEAN_MOTION":15.30178894,"ECCENTRICITY":0.00011627,"INCLINATION":53.1595,"RA_OF_ASC_NODE":76.8327,"ARG_OF_PERICENTER":101.17,"MEAN_ANOMALY":258.9431,"EPHEMERIS_TYPE":0,"CLASSIFICATION_TYPE":"U","NORAD_CAT_ID":59431,"ELEMENT_SET_NO":999,"REV_AT_EPOCH":10381,"BSTAR":-3.9133835e-5,"MEAN_MOTION_DOT":-1.517e-5,"MEAN_MOTION_DDOT":0},{"OBJECT_NAME":"STARLINK-31780","OBJECT_ID":"2024-065M","EPOCH":"2026-02-04T06:38:13.393824","MEAN_MOTION":15.30191812,"ECCENTRICITY":0.00011221,"INCLINATION":53.1597,"RA_OF_ASC_NODE":76.8755,"ARG_OF_PERICENTER":98.2569,"MEAN_ANOMALY":261.8559,"EPHEMERIS_TYPE":0,"CLASSIFICATION_TYPE":"U","NORAD_CAT_ID":59432,"ELEMENT_SET_NO":999,"REV_AT_EPOCH":10381,"BSTAR":1.7942821e-5,"MEAN_MOTION_DOT":1.72e-6,"MEAN_MOTION_DDOT":0},{"OBJECT_NAME":"STARLINK-31740","OBJECT_ID":"2024-065N","EPOCH":"2026-02-04T07:36:33.882912","MEAN_MOTION":15.30190914,"ECCENTRICITY":0.00013408,"INCLINATION":53.1599,"RA_OF_ASC_NODE":78.5566,"ARG_OF_PERICENTER":80.3056,"MEAN_ANOMALY":279.8096,"EPHEMERIS_TYPE":0,"CLASSIFICATION_TYPE":"U","NORAD_CAT_ID":59433,"ELEMENT_SET_NO":999,"REV_AT_EPOCH":10379,"BSTAR":4.8273321e-5,"MEAN_MOTION_DOT":1.07e-5,"MEAN_MOTION_DDOT":0},{"OBJECT_NAME":"STARLINK-31580","OBJECT_ID":"2024-065P","EPOCH":"2026-02-04T07:48:43.500672","MEAN_MOTION":15.30194633,"ECCENTRICITY":0.00013243,"INCLINATION":53.1599,"RA_OF_ASC_NODE":78.6118,"ARG_OF_PERICENTER":62.889,"MEAN_ANOMALY":297.2246,"EPHEMERIS_TYPE":0,"CLASSIFICATION_TYPE":"U","NORAD_CAT_ID":59434,"ELEMENT_SET_NO":999,"REV_AT_EPOCH":10379,"BSTAR":9.4871215e-5,"MEAN_MOTION_DOT":2.451e-5,"MEAN_MOTION_DDOT":0},{"OBJECT_NAME":"STARLINK-31696","OBJECT_ID":"2024-065Q","EPOCH":"2026-02-04T06:23:01.449600","MEAN_MOTION":15.30197259,"ECCENTRICITY":0.00012906,"INCLINATION":53.1569,"RA_OF_ASC_NODE":76.8128,"ARG_OF_PERICENTER":94.6177,"MEAN_ANOMALY":265.4971,"EPHEMERIS_TYPE":0,"CLASSIFICATION_TYPE":"U","NORAD_CAT_ID":59435,"ELEMENT_SET_NO":999,"REV_AT_EPOCH":10381,"BSTAR":0.00010291106,"MEAN_MOTION_DOT":2.69e-5,"MEAN_MOTION_DDOT":0},{"OBJECT_NAME":"STARLINK-31700","OBJECT_ID":"2024-065R","EPOCH":"2026-02-04T07:47:57.249024","MEAN_MOTION":15.30196949,"ECCENTRICITY":9.69e-5,"INCLINATION":53.1565,"RA_OF_ASC_NODE":76.4575,"ARG_OF_PERICENTER":85.7195,"MEAN_ANOMALY":274.3916,"EPHEMERIS_TYPE":0,"CLASSIFICATION_TYPE":"U","NORAD_CAT_ID":59436,"ELEMENT_SET_NO":999,"REV_AT_EPOCH":10382,"BSTAR":2.3144033e-5,"MEAN_MOTION_DOT":3.26e-6,"MEAN_MOTION_DDOT":0},{"OBJECT_NAME":"STARLINK-31706","OBJECT_ID":"2024-065S","EPOCH":"2026-02-04T07:38:05.118720","MEAN_MOTION":15.30195885,"ECCENTRICITY":0.00012624,"INCLINATION":53.159,"RA_OF_ASC_NODE":78.5651,"ARG_OF_PERICENTER":88.0189,"MEAN_ANOMALY":272.0956,"EPHEMERIS_TYPE":0,"CLASSIFICATION_TYPE":"U","NORAD_CAT_ID":59437,"ELEMENT_SET_NO":999,"REV_AT_EPOCH":10379,"BSTAR":1.3591516e-5,"MEAN_MOTION_DOT":4.3e-7,"MEAN_MOTION_DDOT":0},{"OBJECT_NAME":"STARLINK-31711","OBJECT_ID":"2024-065T","EPOCH":"2026-02-04T07:52:30.836352","MEAN_MOTION":15.30221492,"ECCENTRICITY":0.00033167,"INCLINATION":53.1587,"RA_OF_ASC_NODE":76.4904,"ARG_OF_PERICENTER":123.2501,"MEAN_ANOMALY":236.8818,"EPHEMERIS_TYPE":0,"CLASSIFICATION_TYPE":"U","NORAD_CAT_ID":59438,"ELEMENT_SET_NO":999,"REV_AT_EPOCH":10382,"BSTAR":0.00036134587,"MEAN_MOTION_DOT":0.00010365,"MEAN_MOTION_DDOT":0},{"OBJECT_NAME":"STARLINK-31708","OBJECT_ID":"2024-065U","EPOCH":"2026-02-04T07:38:50.490816","MEAN_MOTION":15.30193426,"ECCENTRICITY":0.00011954,"INCLINATION":53.158,"RA_OF_ASC_NODE":76.4259,"ARG_OF_PERICENTER":104.6993,"MEAN_ANOMALY":255.414,"EPHEMERIS_TYPE":0,"CLASSIFICATION_TYPE":"U","NORAD_CAT_ID":59439,"ELEMENT_SET_NO":999,"REV_AT_EPOCH":10382,"BSTAR":6.0337447e-5,"MEAN_MOTION_DOT":1.428e-5,"MEAN_MOTION_DDOT":0}]
